SL-4 R/B                
1 39679U 14021B   26062.20064178  .00018805  00000+0  41513-3 0  9994
2 39679  51.6082   8.9286 0098098  79.3446 281.8567 15.38921077655273
ALOS-2                  
1 39766U 14029A   26062.56430580  .00003146  00000+0  42788-3 0  9999
2 39766  97.9203 161.2504 0001497  99.2056 260.9324 14.79475457635962
YAOGAN-29               
1 41038U 15069A   26062.51955240  .00001092  00000+0  14113-3 0  9998
2 41038  98.0151  90.9326 0002298  46.8294 313.3111 14.82989710554966
ASTRO-H (HITOMI)        
1 41337U 16012A   26062.28812589  .00004520  00000+0  26589-3 0  9990
2 41337  31.0005  37.8551 0010016 267.5295  92.4196 15.09949072551268
HXMT (HUIYAN)           
1 42758U 17034A   26062.45847007  .00006583  00000+0  33103-3 0  9996
2 42758  43.0149  51.3128 0032245 197.7187 162.2538 15.17363580481598
SAOCOM 1A               
1 43641U 18076A   26062.48203356  .00000881  00000+0  11721-3 0  9998
2 43641  97.8883 250.7420 0001276  85.1433 274.9926 14.82161935400444
H-2A R/B                
1 43682U 18084L   26062.50001470  .00023470  00000+0  56364-3 0  9999
2 43682  98.8736 278.5669 0025827  46.2220 314.1153 15.41025493404829
SAOCOM 1B               
1 46265U 20059A   26062.51325729  .00000057  00000+0  13746-4 0  9995
2 46265  97.8882 249.8707 0001434  81.4441 278.6935 14.82163485297839
CSS (TIANHE)            
1 48274U 21035A   26061.80363536  .00017409  00000+0  21017-3 0  9999
2 48274  41.4651 250.0496 0006616 230.1207 129.9050 15.60315912276530
COSMOS 2550             
1 48865U 21056A   26062.51823236 -.00000190  00000+0  58363-7 0  9993
2 48865  67.1426  59.5994 0008367 269.1086  90.9110 15.33843242262517
CZ-2C R/B               
1 52794U 22058K   26062.21063122  .00036042  00000+0  53678-3 0  9993
2 52794  50.1905 351.6043 0042180 173.2115 186.9436 15.53679339209128
CZ-2C R/B               
1 54039U 22132E   26062.47604860  .00048909  00000+0  57096-3 0  9991
2 54039  97.2955  65.6069 0020777 110.9864 249.3619 15.61214914189404
