CCSDS_OMM_VERS = 2.0
CREATION_DATE  = 
ORIGINATOR     = 

OBJECT_NAME    = SL-4 R/B
OBJECT_ID      = 2014-021B
CENTER_NAME    = EARTH
REF_FRAME      = TEME
TIME_SYSTEM    = UTC
MEAN_ELEMENT_THEORY = SGP/SGP4

EPOCH          = 2026-03-03T04:48:55.449792
MEAN_MOTION    = 15.38921077
ECCENTRICITY   = .0098098
INCLINATION    = 51.6082
RA_OF_ASC_NODE = 8.9286
ARG_OF_PERICENTER = 79.3446
MEAN_ANOMALY   = 281.8567

EPHEMERIS_TYPE = 0
CLASSIFICATION_TYPE = U
NORAD_CAT_ID   = 39679
ELEMENT_SET_NO = 999
REV_AT_EPOCH   = 65527
BSTAR          = .41513E-3
MEAN_MOTION_DOT = .18805E-3
MEAN_MOTION_DDOT = 0

CCSDS_OMM_VERS = 2.0
CREATION_DATE  = 
ORIGINATOR     = 

OBJECT_NAME    = ALOS-2
OBJECT_ID      = 2014-029A
CENTER_NAME    = EARTH
REF_FRAME      = TEME
TIME_SYSTEM    = UTC
MEAN_ELEMENT_THEORY = SGP/SGP4

EPOCH          = 2026-03-03T13:32:36.021120
MEAN_MOTION    = 14.79475457
ECCENTRICITY   = .0001497
INCLINATION    = 97.9203
RA_OF_ASC_NODE = 161.2504
ARG_OF_PERICENTER = 99.2056
MEAN_ANOMALY   = 260.9324

EPHEMERIS_TYPE = 0
CLASSIFICATION_TYPE = U
NORAD_CAT_ID   = 39766
ELEMENT_SET_NO = 999
REV_AT_EPOCH   = 63596
BSTAR          = .42788E-3
MEAN_MOTION_DOT = .3146E-4
MEAN_MOTION_DDOT = 0

CCSDS_OMM_VERS = 2.0
CREATION_DATE  = 
ORIGINATOR     = 

OBJECT_NAME    = YAOGAN-29
OBJECT_ID      = 2015-069A
CENTER_NAME    = EARTH
REF_FRAME      = TEME
TIME_SYSTEM    = UTC
MEAN_ELEMENT_THEORY = SGP/SGP4

EPOCH          = 2026-03-03T12:28:09.327360
MEAN_MOTION    = 14.82989710
ECCENTRICITY   = .0002298
INCLINATION    = 98.0151
RA_OF_ASC_NODE = 90.9326
ARG_OF_PERICENTER = 46.8294
MEAN_ANOMALY   = 313.3111

EPHEMERIS_TYPE = 0
CLASSIFICATION_TYPE = U
NORAD_CAT_ID   = 41038
ELEMENT_SET_NO = 999
REV_AT_EPOCH   = 55496
BSTAR          = .14113E-3
MEAN_MOTION_DOT = .1092E-4
MEAN_MOTION_DDOT = 0

CCSDS_OMM_VERS = 2.0
CREATION_DATE  = 
ORIGINATOR     = 

OBJECT_NAME    = ASTRO-H (HITOMI)
OBJECT_ID      = 2016-012A
CENTER_NAME    = EARTH
REF_FRAME      = TEME
TIME_SYSTEM    = UTC
MEAN_ELEMENT_THEORY = SGP/SGP4

EPOCH          = 2026-03-03T06:54:54.076896
MEAN_MOTION    = 15.09949072
ECCENTRICITY   = .0010016
INCLINATION    = 31.0005
RA_OF_ASC_NODE = 37.8551
ARG_OF_PERICENTER = 267.5295
MEAN_ANOMALY   = 92.4196

EPHEMERIS_TYPE = 0
CLASSIFICATION_TYPE = U
NORAD_CAT_ID   = 41337
ELEMENT_SET_NO = 999
REV_AT_EPOCH   = 55126
BSTAR          = .26589E-3
MEAN_MOTION_DOT = .452E-4
MEAN_MOTION_DDOT = 0

CCSDS_OMM_VERS = 2.0
CREATION_DATE  = 
ORIGINATOR     = 

OBJECT_NAME    = HXMT (HUIYAN)
OBJECT_ID      = 2017-034A
CENTER_NAME    = EARTH
REF_FRAME      = TEME
TIME_SYSTEM    = UTC
MEAN_ELEMENT_THEORY = SGP/SGP4

EPOCH          = 2026-03-03T11:00:11.814048
MEAN_MOTION    = 15.17363580
ECCENTRICITY   = .0032245
INCLINATION    = 43.0149
RA_OF_ASC_NODE = 51.3128
ARG_OF_PERICENTER = 197.7187
MEAN_ANOMALY   = 162.2538

EPHEMERIS_TYPE = 0
CLASSIFICATION_TYPE = U
NORAD_CAT_ID   = 42758
ELEMENT_SET_NO = 999
REV_AT_EPOCH   = 48159
BSTAR          = .33103E-3
MEAN_MOTION_DOT = .6583E-4
MEAN_MOTION_DDOT = 0

CCSDS_OMM_VERS = 2.0
CREATION_DATE  = 
ORIGINATOR     = 

OBJECT_NAME    = SAOCOM 1A
OBJECT_ID      = 2018-076A
CENTER_NAME    = EARTH
REF_FRAME      = TEME
TIME_SYSTEM    = UTC
MEAN_ELEMENT_THEORY = SGP/SGP4

EPOCH          = 2026-03-03T11:34:07.699584
MEAN_MOTION    = 14.82161935
ECCENTRICITY   = .0001276
INCLINATION    = 97.8883
RA_OF_ASC_NODE = 250.7420
ARG_OF_PERICENTER = 85.1433
MEAN_ANOMALY   = 274.9926

EPHEMERIS_TYPE = 0
CLASSIFICATION_TYPE = U
NORAD_CAT_ID   = 43641
ELEMENT_SET_NO = 999
REV_AT_EPOCH   = 40044
BSTAR          = .11721E-3
MEAN_MOTION_DOT = .881E-5
MEAN_MOTION_DDOT = 0

CCSDS_OMM_VERS = 2.0
CREATION_DATE  = 
ORIGINATOR     = 

OBJECT_NAME    = H-2A R/B
OBJECT_ID      = 2018-084L
CENTER_NAME    = EARTH
REF_FRAME      = TEME
TIME_SYSTEM    = UTC
MEAN_ELEMENT_THEORY = SGP/SGP4

EPOCH          = 2026-03-03T12:00:01.270080
MEAN_MOTION    = 15.41025493
ECCENTRICITY   = .0025827
INCLINATION    = 98.8736
RA_OF_ASC_NODE = 278.5669
ARG_OF_PERICENTER = 46.2220
MEAN_ANOMALY   = 314.1153

EPHEMERIS_TYPE = 0
CLASSIFICATION_TYPE = U
NORAD_CAT_ID   = 43682
ELEMENT_SET_NO = 999
REV_AT_EPOCH   = 40482
BSTAR          = .56364E-3
MEAN_MOTION_DOT = .2347E-3
MEAN_MOTION_DDOT = 0

CCSDS_OMM_VERS = 2.0
CREATION_DATE  = 
ORIGINATOR     = 

OBJECT_NAME    = SAOCOM 1B
OBJECT_ID      = 2020-059A
CENTER_NAME    = EARTH
REF_FRAME      = TEME
TIME_SYSTEM    = UTC
MEAN_ELEMENT_THEORY = SGP/SGP4

EPOCH          = 2026-03-03T12:19:05.429856
MEAN_MOTION    = 14.82163485
ECCENTRICITY   = .0001434
INCLINATION    = 97.8882
RA_OF_ASC_NODE = 249.8707
ARG_OF_PERICENTER = 81.4441
MEAN_ANOMALY   = 278.6935

EPHEMERIS_TYPE = 0
CLASSIFICATION_TYPE = U
NORAD_CAT_ID   = 46265
ELEMENT_SET_NO = 999
REV_AT_EPOCH   = 29783
BSTAR          = .13746E-4
MEAN_MOTION_DOT = .57E-6
MEAN_MOTION_DDOT = 0

CCSDS_OMM_VERS = 2.0
CREATION_DATE  = 
ORIGINATOR     = 

OBJECT_NAME    = CSS (TIANHE)
OBJECT_ID      = 2021-035A
CENTER_NAME    = EARTH
REF_FRAME      = TEME
TIME_SYSTEM    = UTC
MEAN_ELEMENT_THEORY = SGP/SGP4

EPOCH          = 2026-03-02T19:17:14.095104
MEAN_MOTION    = 15.60315912
ECCENTRICITY   = .00066169
INCLINATION    = 41.4651
RA_OF_ASC_NODE = 250.0496
ARG_OF_PERICENTER = 230.1207
MEAN_ANOMALY   = 129.9050

EPHEMERIS_TYPE = 0
CLASSIFICATION_TYPE = U
NORAD_CAT_ID   = 48274
ELEMENT_SET_NO = 999
REV_AT_EPOCH   = 27653
BSTAR          = .21016754E-3
MEAN_MOTION_DOT = .17409E-3
MEAN_MOTION_DDOT = 0

CCSDS_OMM_VERS = 2.0
CREATION_DATE  = 
ORIGINATOR     = 

OBJECT_NAME    = COSMOS 2550
OBJECT_ID      = 2021-056A
CENTER_NAME    = EARTH
REF_FRAME      = TEME
TIME_SYSTEM    = UTC
MEAN_ELEMENT_THEORY = SGP/SGP4

EPOCH          = 2026-03-03T12:26:15.275904
MEAN_MOTION    = 15.33843242
ECCENTRICITY   = .0008367
INCLINATION    = 67.1426
RA_OF_ASC_NODE = 59.5994
ARG_OF_PERICENTER = 269.1086
MEAN_ANOMALY   = 90.9110

EPHEMERIS_TYPE = 0
CLASSIFICATION_TYPE = U
NORAD_CAT_ID   = 48865
ELEMENT_SET_NO = 999
REV_AT_EPOCH   = 26251
BSTAR          = .58363E-7
MEAN_MOTION_DOT = -.19E-5
MEAN_MOTION_DDOT = 0

CCSDS_OMM_VERS = 2.0
CREATION_DATE  = 
ORIGINATOR     = 

OBJECT_NAME    = CZ-2C R/B
OBJECT_ID      = 2022-058K
CENTER_NAME    = EARTH
REF_FRAME      = TEME
TIME_SYSTEM    = UTC
MEAN_ELEMENT_THEORY = SGP/SGP4

EPOCH          = 2026-03-03T05:03:18.537408
MEAN_MOTION    = 15.53679339
ECCENTRICITY   = .004218
INCLINATION    = 50.1905
RA_OF_ASC_NODE = 351.6043
ARG_OF_PERICENTER = 173.2115
MEAN_ANOMALY   = 186.9436

EPHEMERIS_TYPE = 0
CLASSIFICATION_TYPE = U
NORAD_CAT_ID   = 52794
ELEMENT_SET_NO = 999
REV_AT_EPOCH   = 20912
BSTAR          = .53678E-3
MEAN_MOTION_DOT = .36042E-3
MEAN_MOTION_DDOT = 0

CCSDS_OMM_VERS = 2.0
CREATION_DATE  = 
ORIGINATOR     = 

OBJECT_NAME    = CZ-2C R/B
OBJECT_ID      = 2022-132E
CENTER_NAME    = EARTH
REF_FRAME      = TEME
TIME_SYSTEM    = UTC
MEAN_ELEMENT_THEORY = SGP/SGP4

EPOCH          = 2026-03-03T11:25:30.599040
MEAN_MOTION    = 15.61214914
ECCENTRICITY   = .0020777
INCLINATION    = 97.2955
RA_OF_ASC_NODE = 65.6069
ARG_OF_PERICENTER = 110.9864
MEAN_ANOMALY   = 249.3619

EPHEMERIS_TYPE = 0
CLASSIFICATION_TYPE = U
NORAD_CAT_ID   = 54039
ELEMENT_SET_NO = 999
REV_AT_EPOCH   = 18940
BSTAR          = .57096E-3
MEAN_MOTION_DOT = .48909E-3
MEAN_MOTION_DDOT = 0

